ASTROCAST-0402          
1 55109U 23001DE  26068.80661100  .00010930  00000+0  41835-3 0  9996
2 55109  97.5556 160.6821 0004209 216.6984 143.3966 15.26734153129364
STARLINK-30142          
1 56836U 23079P   26068.14932778 -.00000951  00000+0 -25056-4 0  9990
2 56836  42.9981 106.8569 0000928 278.1929  81.8818 15.27563421152845
